{
  "norad_id": 66473,
  "name": "STARLINK-35568",
  "history": [
    {
      "epoch": "2026-03-28T17:28:53.270976Z",
      "apogee_km": 483.3551688114039,
      "perigee_km": 482.4746214111856,
      "latitude_deg": -5.50441502623593e-05,
      "longitude_deg": 100.67220481968232,
      "height_km": 482.41116658943207,
      "semi_major_axis_km": 6861.0518951112945,
      "eccentricity": 6.417e-05,
      "inclination_deg": 43.0013,
      "raan_deg": 189.0389,
      "arg_perigee_deg": 309.4601,
      "mean_anomaly_deg": 50.6193,
      "mean_motion_rev_day": 15.27624819
    },
    {
      "epoch": "2026-03-28T23:45:31.135680Z",
      "apogee_km": 483.46350426956906,
      "perigee_km": 482.5399949938683,
      "latitude_deg": -4.5818666466557486e-05,
      "longitude_deg": 4.778050141193303,
      "height_km": 482.80899456077236,
      "semi_major_axis_km": 6861.138749631718,
      "eccentricity": 6.73e-05,
      "inclination_deg": 43.0003,
      "raan_deg": 187.5603,
      "arg_perigee_deg": 266.1319,
      "mean_anomaly_deg": 93.9455,
      "mean_motion_rev_day": 15.27595812
    },
    {
      "epoch": "2026-03-29T23:17:52.984896Z",
      "apogee_km": 484.04154335103794,
      "perigee_km": 482.09982157690047,
      "latitude_deg": -1.2252247979253462e-06,
      "longitude_deg": 5.1823308744061185,
      "height_km": 482.5149754414536,
      "semi_major_axis_km": 6861.207682463969,
      "eccentricity": 0.0001415,
      "inclination_deg": 42.9988,
      "raan_deg": 182.0223,
      "arg_perigee_deg": 70.1572,
      "mean_anomaly_deg": 289.9432,
      "mean_motion_rev_day": 15.27572791
    },
    {
      "epoch": "2026-03-30T05:34:30.188640Z",
      "apogee_km": 483.40325192913133,
      "perigee_km": 482.6553848004296,
      "latitude_deg": -7.802622081149523e-07,
      "longitude_deg": -90.70917124037753,
      "height_km": 482.61099348399813,
      "semi_major_axis_km": 6861.16631836478,
      "eccentricity": 5.45e-05,
      "inclination_deg": 42.9983,
      "raan_deg": 180.5436,
      "arg_perigee_deg": 58.9125,
      "mean_anomaly_deg": 301.178,
      "mean_motion_rev_day": 15.27586605
    },
    {
      "epoch": "2026-03-30T05:34:30.189504Z",
      "apogee_km": 483.4029774824785,
      "perigee_km": 482.65565924708244,
      "latitude_deg": 1.9107597231672442e-06,
      "longitude_deg": -90.70917198024402,
      "height_km": 482.611135173985,
      "semi_major_axis_km": 6861.16631836478,
      "eccentricity": 5.446e-05,
      "inclination_deg": 42.9983,
      "raan_deg": 180.5436,
      "arg_perigee_deg": 58.9125,
      "mean_anomaly_deg": 301.178,
      "mean_motion_rev_day": 15.27586605
    },
    {
      "epoch": "2026-03-31T06:41:00.316032Z",
      "apogee_km": 483.9571022779901,
      "perigee_km": 482.08263422158325,
      "latitude_deg": -1.0410952170974194e-05,
      "longitude_deg": -114.2761750941732,
      "height_km": 482.8174325753085,
      "semi_major_axis_km": 6861.156868249786,
      "eccentricity": 0.0001366,
      "inclination_deg": 43.0027,
      "raan_deg": 174.6333,
      "arg_perigee_deg": 268.741,
      "mean_anomaly_deg": 91.3285,
      "mean_motion_rev_day": 15.27589761
    },
    {
      "epoch": "2026-04-01T15:38:17.042496Z",
      "apogee_km": 483.9625485671104,
      "perigee_km": 481.9906645165911,
      "latitude_deg": 4.694827477829424e-05,
      "longitude_deg": 102.29639505577437,
      "height_km": 482.91772843776516,
      "semi_major_axis_km": 6861.1136065418505,
      "eccentricity": 0.0001437,
      "inclination_deg": 43.0032,
      "raan_deg": 166.8789,
      "arg_perigee_deg": 260.4203,
      "mean_anomaly_deg": 99.6487,
      "mean_motion_rev_day": 15.27604209
    },
    {
      "epoch": "2026-04-02T13:36:28.462176Z",
      "apogee_km": 483.76458775866286,
      "perigee_km": 482.2150708755289,
      "latitude_deg": -1.7984704676007262e-07,
      "longitude_deg": 126.67939440860424,
      "height_km": 482.67992870649726,
      "semi_major_axis_km": 6861.126829317095,
      "eccentricity": 0.00011292,
      "inclination_deg": 43.0004,
      "raan_deg": 161.7118,
      "arg_perigee_deg": 276.4045,
      "mean_anomaly_deg": 83.6678,
      "mean_motion_rev_day": 15.27599793
    },
    {
      "epoch": "2026-04-02T21:27:15.335136Z",
      "apogee_km": 483.25131904283535,
      "perigee_km": 482.609946440527,
      "latitude_deg": -6.86094084295988e-06,
      "longitude_deg": 6.813045220340318,
      "height_km": 482.7135541450216,
      "semi_major_axis_km": 6861.067632741681,
      "eccentricity": 4.674e-05,
      "inclination_deg": 43.0023,
      "raan_deg": 159.863,
      "arg_perigee_deg": 268.7851,
      "mean_anomaly_deg": 91.2947,
      "mean_motion_rev_day": 15.27619563
    },
    {
      "epoch": "2026-04-03T13:08:49.684992Z",
      "apogee_km": 484.28382384264023,
      "perigee_km": 482.0950607075538,
      "latitude_deg": -1.6174929146592037e-05,
      "longitude_deg": 127.08262744571729,
      "height_km": 483.1019347784697,
      "semi_major_axis_km": 6861.326442275096,
      "eccentricity": 0.0001595,
      "inclination_deg": 42.9997,
      "raan_deg": 156.1702,
      "arg_perigee_deg": 262.8778,
      "mean_anomaly_deg": 97.1892,
      "mean_motion_rev_day": 15.27533131
    },
    {
      "epoch": "2026-04-04T20:31:57.992448Z",
      "apogee_km": 483.66496867025126,
      "perigee_km": 482.3791874590215,
      "latitude_deg": -2.2254538676974172e-05,
      "longitude_deg": 7.623343244132479,
      "height_km": 482.64541363223543,
      "semi_major_axis_km": 6861.159078064636,
      "eccentricity": 9.37e-05,
      "inclination_deg": 43.0022,
      "raan_deg": 148.7845,
      "arg_perigee_deg": 283.7873,
      "mean_anomaly_deg": 76.2874,
      "mean_motion_rev_day": 15.27589023
    },
    {
      "epoch": "2026-04-05T13:47:41.792928Z",
      "apogee_km": 484.1612296538242,
      "perigee_km": 481.9862258531266,
      "latitude_deg": 5.988003678671173e-07,
      "longitude_deg": 103.91953244757603,
      "height_km": 482.85833421714165,
      "semi_major_axis_km": 6861.210727753475,
      "eccentricity": 0.0001585,
      "inclination_deg": 43.0013,
      "raan_deg": 144.7221,
      "arg_perigee_deg": 269.5991,
      "mean_anomaly_deg": 90.4679,
      "mean_motion_rev_day": 15.27571774
    },
    {
      "epoch": "2026-04-05T13:47:41.793792Z",
      "apogee_km": 484.1609552053951,
      "perigee_km": 481.9865003015557,
      "latitude_deg": -2.545957223109745e-06,
      "longitude_deg": 103.91952548416651,
      "height_km": 482.8583322969006,
      "semi_major_axis_km": 6861.210727753475,
      "eccentricity": 0.00015846,
      "inclination_deg": 43.0013,
      "raan_deg": 144.7221,
      "arg_perigee_deg": 269.5991,
      "mean_anomaly_deg": 90.4679,
      "mean_motion_rev_day": 15.27571774
    },
    {
      "epoch": "2026-04-07T19:08:59.558784Z",
      "apogee_km": 484.4836015132005,
      "perigee_km": 481.52644930025053,
      "latitude_deg": -1.6409631664505752e-06,
      "longitude_deg": 8.849390758893007,
      "height_km": 482.69705356546024,
      "semi_major_axis_km": 6861.142025406725,
      "eccentricity": 0.0002155,
      "inclination_deg": 42.9984,
      "raan_deg": 132.1672,
      "arg_perigee_deg": 273.2991,
      "mean_anomaly_deg": 86.7614,
      "mean_motion_rev_day": 15.27594718
    },
    {
      "epoch": "2026-04-08T10:50:33.596736Z",
      "apogee_km": 484.0830510799742,
      "perigee_km": 481.9560925427131,
      "latitude_deg": -4.2629718175645325e-05,
      "longitude_deg": 129.1195403468414,
      "height_km": 482.61392775977924,
      "semi_major_axis_km": 6861.156571811343,
      "eccentricity": 0.000155,
      "inclination_deg": 43.0021,
      "raan_deg": 128.4737,
      "arg_perigee_deg": 279.8929,
      "mean_anomaly_deg": 80.1747,
      "mean_motion_rev_day": 15.2758986
    },
    {
      "epoch": "2026-04-09T08:48:44.891136Z",
      "apogee_km": 483.72470726198026,
      "perigee_km": 482.2893559305694,
      "latitude_deg": 4.502445497288342e-06,
      "longitude_deg": 153.500460056086,
      "height_km": 482.68451196738073,
      "semi_major_axis_km": 6861.1440315962745,
      "eccentricity": 0.0001046,
      "inclination_deg": 43.0039,
      "raan_deg": 123.3039,
      "arg_perigee_deg": 277.9578,
      "mean_anomaly_deg": 82.1155,
      "mean_motion_rev_day": 15.27594048
    },
    {
      "epoch": "2026-04-10T08:21:04.799808Z",
      "apogee_km": 483.5682833407527,
      "perigee_km": 482.327799165294,
      "latitude_deg": -2.151545989821326e-05,
      "longitude_deg": 153.9125700661829,
      "height_km": 482.7687036657982,
      "semi_major_axis_km": 6861.0850412530235,
      "eccentricity": 9.04e-05,
      "inclination_deg": 43.0015,
      "raan_deg": 117.7657,
      "arg_perigee_deg": 265.9107,
      "mean_anomaly_deg": 94.1641,
      "mean_motion_rev_day": 15.27613749
    },
    {
      "epoch": "2026-04-11T17:18:23.567040Z",
      "apogee_km": 484.27757191501314,
      "perigee_km": 481.97904803617075,
      "latitude_deg": 3.956036310665189e-05,
      "longitude_deg": 10.475113210506104,
      "height_km": 482.8001474314186,
      "semi_major_axis_km": 6861.265309975592,
      "eccentricity": 0.0001675,
      "inclination_deg": 42.9997,
      "raan_deg": 110.0098,
      "arg_perigee_deg": 275.2451,
      "mean_anomaly_deg": 84.821,
      "mean_motion_rev_day": 15.27553546
    },
    {
      "epoch": "2026-04-13T06:58:10.310304Z",
      "apogee_km": 484.106882473744,
      "perigee_km": 482.03424889230246,
      "latitude_deg": 2.7366688907519445e-05,
      "longitude_deg": 155.12207203241033,
      "height_km": 482.7301707114499,
      "semi_major_axis_km": 6861.207565683023,
      "eccentricity": 0.00015104,
      "inclination_deg": 43.0,
      "raan_deg": 101.1483,
      "arg_perigee_deg": 276.4933,
      "mean_anomaly_deg": 83.5747,
      "mean_motion_rev_day": 15.2757283
    }
  ]
}